IRIDIUM 126             
1 42809U 17039G   24338.00044936  .00000525  00000+0  18051-3 0  9998
2 42809  86.3996 228.1144 0002244  79.9177 280.2272 14.34220128389516
IRIDIUM 124             
1 42810U 17039H   24338.58188576  .00000369  00000+0  10371-3 0  9995
2 42810  86.4509 164.7145 0001542  90.6970 269.4407 14.43285157394255
IRIDIUM 128             
1 42811U 17039J   24338.27026295  .00000273  00000+0  90495-4 0  9991
2 42811  86.3970 259.5160 0001972  75.5530 284.5884 14.34217040389581
IRIDIUM 121             
1 42812U 17039K   24338.43808913  .00000768  00000+0  26714-3 0  9996
2 42812  86.3995 227.9550 0001952  82.5553 277.5865 14.34217944389452
IRIDIUM 133             
1 42955U 17061A   24338.30196939  .00000554  00000+0  19088-3 0  9992
2 42955  86.3969 259.6064 0002132  83.6324 276.5114 14.34222103374387
IRIDIUM 100             
1 42956U 17061B   24338.50492855  .00000248  00000+0  81480-4 0  9997
2 42956  86.3967 259.4532 0002163  76.3575 283.7862 14.34213593374412
IRIDIUM 122             
1 42957U 17061C   24338.54298047  .00000872  00000+0  30408-3 0  9995
2 42957  86.3969 259.4362 0002349  73.6962 286.4492 14.34225382374421
IRIDIUM 129             
1 42958U 17061D   24338.28926961  .00000735  00000+0  25516-3 0  9992
2 42958  86.3967 259.6032 0002415  89.0569 271.0903 14.34226260374405
